FLOCK 3P-80             
1 42026U 17008CG  17111.88747182  .00010060  00000-0  43818-3 0  9990
2 42026  97.5035 173.4088 0009225  46.4165 313.7835 15.22369919  7958
FLOCK 3P-66             
1 42027U 17008CH  17111.88455983  .00006663  00000-0  29297-3 0  9995
2 42027  97.5017 173.3918 0009789  56.1935 304.0232 15.22182522  9924
FLOCK 3P-65             
1 42028U 17008CJ  17111.88415611  .00002853  00000-0  12715-3 0  9994
2 42028  97.5016 173.3927 0009697  56.2436 303.9722 15.22216678  9820
FLOCK 3P-50             
1 42029U 17008CK  17111.88110750  .00005486  00000-0  24124-3 0  9993
2 42029  97.5019 173.3976 0009649  58.1267 302.0906 15.22260133  9142
FLOCK 3P-52             
1 42030U 17008CL  17111.88225028  .00002614  00000-0  11670-3 0  9992
2 42030  97.5014 173.3937 0009605  57.0085 303.2073 15.22235560  9913
FLOCK 3P-46             
1 42031U 17008CM  17111.87982661  .00002806  00000-0  12497-3 0  9996
2 42031  97.5013 173.3955 0009547  58.2366 301.9799 15.22253525  9970
FLOCK 3P-47             
1 42032U 17008CN  17111.94506775  .00002550  00000-0  11373-3 0  9991
2 42032  97.5013 173.4619 0009524  58.1195 302.0967 15.22292914  9809
FLOCK 3P-44             
1 42033U 17008CP  17111.94215873  .00002621  00000-0  11666-3 0  9992
2 42033  97.5015 173.4659 0009508  59.9492 300.2686 15.22342969  8552
FLOCK 3P-64             
1 42034U 17008CQ  17111.94144339  .00002975  00000-0  13205-3 0  9994
2 42034  97.5011 173.4643 0009409  59.9451 300.2717 15.22327185  9972
FLOCK 3P-63             
1 42035U 17008CR  17111.94101490  .00002581  00000-0  11487-3 0  9999
2 42035  97.5010 173.4638 0009446  60.2830 299.9345 15.22352246  7945
FLOCK 3P-62             
1 42036U 17008CS  17111.87379859  .00002802  00000-0  12420-3 0  9992
2 42036  97.5011 173.4011 0009371  61.5763 298.6417 15.22415806  9139
FLOCK 3P-38             
1 42037U 17008CT  17111.93948597  .00003461  00000-0  15284-3 0  9994
2 42037  97.5011 173.4658 0009230  61.1436 299.0726 15.22382672  9923
FLOCK 3P-39             
1 42038U 17008CU  17111.93937193  .00003648  00000-0  16090-3 0  9998
2 42038  97.5008 173.4639 0009386  60.7777 299.4396 15.22390833  9873
FLOCK 3P-15             
1 42039U 17008CV  17111.93932231  .00002516  00000-0  11208-3 0  9996
2 42039  97.5010 173.4661 0009263  60.7386 299.4775 15.22351573  9152
FLOCK 3P-13             
1 42040U 17008CW  17111.93807276  .00002631  00000-0  11684-3 0  9994
2 42040  97.5012 173.4682 0009208  61.4336 298.7825 15.22416178  9141
FLOCK 3P 55             
1 42041U 17008CX  17111.93171544  .00002910  00000-0  12824-3 0  9994
2 42041  97.5011 173.4752 0009072  65.5228 294.6954 15.22593487  9982
FLOCK 3P-56             
1 42042U 17008CY  17111.93212319  .00002805  00000-0  12382-3 0  9993
2 42042  97.5008 173.4713 0009043  64.1811 296.0357 15.22563173  9776
FLOCK 3P-81             
1 42043U 17008CZ  17111.89071613  .00005644  00000-0  24891-3 0  9991
2 42043  97.5037 173.4061 0009440  46.1377 314.0638 15.22151925  9156
FLOCK 3P-87             
1 42044U 17008DA  17111.69832121  .00008597  00000-0  37920-3 0  9996
2 42044  97.5035 173.2011 0009535  44.2712 315.9285 15.21987408  9278
FLOCK 3P-29             
1 42045U 17008DB  17111.82988993  .00005899  00000-0  26164-3 0  9991
2 42045  97.5016 173.3117 0008975  41.9929 318.1994 15.21941348  9148
FLOCK 3P-82             
1 42046U 17008DC  17111.89587817  .00009765  00000-0  43048-3 0  9995
2 42046  97.5035 173.3987 0009589  43.7301 316.4693 15.21967116  9206
FLOCK 3P-78             
1 42047U 17008DD  17111.89508057  .00009916  00000-0  43625-3 0  9994
2 42047  97.5035 173.4002 0009449  43.5651 316.6330 15.22033409  9139
FLOCK 3P-74             
1 42048U 17008DE  17111.89659773  .00009882  00000-0  43663-3 0  9991
2 42048  97.5039 173.4003 0009675  44.3101 315.8908 15.21884781  9133
FLOCK 3P-31             
1 42049U 17008DF  17111.89627845  .00006296  00000-0  27917-3 0  9997
2 42049  97.5017 173.3775 0009130  41.8946 318.2987 15.21923205  8598
FLOCK 3P-83             
1 42050U 17008DG  17111.89611482  .00009036  00000-0  39860-3 0  9994
2 42050  97.5034 173.3980 0009617  43.8699 316.3299 15.21966157  9863
FLOCK 3P-72             
1 42051U 17008DH  17111.89288438  .00010016  00000-0  43863-3 0  9994
2 42051  97.5039 173.4058 0009183  44.2754 315.9215 15.22187248  7454
LEMUR-2-REDFERN-GOES    
1 42059U 98067LA  17111.91963790  .00026816  00000-0  37766-3 0  9990
2 42059  51.6408 318.3111 0008940  89.9676 270.2340 15.56398265  7241
TECHEDSAT 5             
1 42066U 98067LB  17111.78394894  .00114719  00000-0  12741-2 0  9991
2 42066  51.6383 318.1512 0003043 138.8941 221.2282 15.62040264  6961
LEMUR-2-TRUTNA          
1 42067U 98067LC  17111.84884794  .00028330  00000-0  39175-3 0  9996
2 42067  51.6408 318.5873 0008415  90.3768 269.8188 15.56866113  7068
LEMUR-2-AUSTINTACIOUS   
1 42068U 98067LD  17111.79216570  .00021567  00000-0  30604-3 0  9995
2 42068  51.6405 318.9589 0008482  90.2924 269.9039 15.56336663  7159
LEMUR-2-TRUTNAHD        
1 42069U 98067LE  17111.79261680  .00023685  00000-0  33473-3 0  9998
2 42069  51.6407 318.9626 0008366  89.2717 270.9233 15.56384921  7207
